     2.10           G: GLONASS NAV DATA                     RINEX VERSION / TYPE
teqc  2015Jun23                         20210916 01:26:14UTCPGM / RUN BY / DATE
Linux 2.4.21-27.ELsmp|Opteron|gcc -static|Linux x86_64|=+   COMMENT
  2021     8    23   -9.313225746155D-10                    CORR TO SYSTEM TIME
                                                            END OF HEADER
14 21  8 24  2 15  0.0 6.798654794693D-05 0.000000000000D+00 7.200000000000D+03
    2.084918945312D+03-6.914901733398D-01-9.313225746155D-10 0.000000000000D+00
    2.117569824219D+04-1.800241470337D+00-1.862645149231D-09-7.000000000000D+00
   -1.403431982422D+04-2.816821098328D+00 1.862645149231D-09 0.000000000000D+00
 2 21  8 24  2 15  0.0 4.907529801130D-04 1.818989403546D-12 7.200000000000D+03
   -1.737792089844D+04 8.320684432983D-01-4.656612873077D-09 0.000000000000D+00
    1.663678369141D+04-8.412046432495D-01 9.313225746155D-10-4.000000000000D+00
    8.609264648438D+03 3.314066886902D+00 0.000000000000D+00 0.000000000000D+00
 3 21  8 24  2 15  0.0 4.171673208475D-05 0.000000000000D+00 7.200000000000D+03
   -1.053819726562D+04-5.905752182007D-01-3.725290298462D-09 0.000000000000D+00
    2.150552490234D+04 1.070382118225D+00-0.000000000000D+00 5.000000000000D+00
   -8.820411621094D+03 3.295342445374D+00 1.862645149231D-09 0.000000000000D+00
13 21  8 24  2 15  0.0-5.961116403341D-05-0.000000000000D+00 7.200000000000D+03
   -8.991558593750D+03-1.299182891846D+00-9.313225746155D-10 0.000000000000D+00
    6.703770507812D+03-2.853453636169D+00 0.000000000000D+00-2.000000000000D+00
   -2.291732080078D+04-3.254604339600D-01 2.793967723846D-09 0.000000000000D+00
15 21  8 24  2 15  0.0 1.018997281790D-04-0.000000000000D+00 7.200000000000D+03
    1.149161230469D+04 2.881402969360D-01-0.000000000000D+00 0.000000000000D+00
    2.261001367188D+04 2.759962081909D-01-2.793967723846D-09 0.000000000000D+00
    2.724968261719D+03-3.540399551392D+00-0.000000000000D+00 0.000000000000D+00
 4 21  8 24  2 45  0.0 1.014480367303D-04 1.818989403546D-12 9.000000000000D+03
   -5.329360351562D+02-1.074465751648D+00-1.862645149231D-09 0.000000000000D+00
    1.824927099609D+04 2.196496009827D+00-9.313225746155D-10 6.000000000000D+00
   -1.779447314453D+04 2.280816078186D+00 1.862645149231D-09 0.000000000000D+00
14 21  8 24  2 45  0.0 6.798654794693D-05 0.000000000000D+00 9.000000000000D+03
    3.298916015625D+02-1.266175270081D+00-9.313225746155D-10 0.000000000000D+00
    1.753469335938D+04-2.199577331543D+00-9.313225746155D-10-7.000000000000D+00
   -1.849517333984D+04-2.107419013977D+00 1.862645149231D-09 0.000000000000D+00
 2 21  8 24  2 45  0.0 4.907567054033D-04 1.818989403546D-12 9.000000000000D+03
   -1.563394628906D+04 1.061765670776D+00-4.656612873077D-09 0.000000000000D+00
    1.442092138672D+04-1.618515014648D+00 1.862645149231D-09-4.000000000000D+00
    1.416681347656D+04 2.821145057678D+00-0.000000000000D+00 0.000000000000D+00
 3 21  8 24  2 45  0.0 4.171859472990D-05 9.094947017729D-13 9.000000000000D+03
   -1.107092333984D+04-2.787494659424D-02-4.656612873077D-09 0.000000000000D+00
    2.285792675781D+04 4.002199172974D-01 0.000000000000D+00 5.000000000000D+00
   -2.624916503906D+03 3.543879508972D+00 9.313225746155D-10 0.000000000000D+00
15 21  8 24  2 45  0.0 1.018997281790D-04-0.000000000000D+00 9.000000000000D+03
    1.165946093750D+04-1.371526718140D-01-9.313225746155D-10 0.000000000000D+00
    2.238154003906D+04-5.100326538086D-01-1.862645149231D-09 0.000000000000D+00
   -3.670757812500D+03-3.519791603088D+00 0.000000000000D+00 0.000000000000D+00
17 21  8 24  2 45  0.0 4.524309188128D-04 2.728484105319D-12 1.053000000000D+04
   -1.066186621094D+04-2.878604888916D+00-3.725290298462D-09 0.000000000000D+00
    9.751671875000D+03 1.510658264160D-01 9.313225746155D-10 4.000000000000D+00
    2.101092382812D+04-1.535328865051D+00-9.313225746155D-10 0.000000000000D+00
 4 21  8 24  3 15  0.0 1.014508306980D-04 1.818989403546D-12 1.080000000000D+04
   -1.946768066406D+03-5.092010498047D-01-2.793967723846D-09 0.000000000000D+00
    2.181893164062D+04 1.724961280823D+00-0.000000000000D+00 6.000000000000D+00
   -1.305324560547D+04 2.952902793884D+00 1.862645149231D-09 0.000000000000D+00
16 21  8 24  3 15  0.0-2.016592770815D-05 0.000000000000D+00 1.080000000000D+04
    1.861830175781D+04 8.845634460449D-01-0.000000000000D+00 0.000000000000D+00
    1.511096679688D+04 8.385410308838D-01-2.793967723846D-09-1.000000000000D+00
    8.867648437500D+03-3.268921852112D+00-9.313225746155D-10 0.000000000000D+00
 2 21  8 24  3 15  0.0 4.907594993711D-04 1.818989403546D-12 1.080000000000D+04
   -1.371244775391D+04 1.031510353088D+00-3.725290298462D-09 0.000000000000D+00
    1.085307128906D+04-2.324512481689D+00 1.862645149231D-09-4.000000000000D+00
    1.863500097656D+04 2.111464500427D+00-9.313225746155D-10 0.000000000000D+00
 3 21  8 24  3 15  0.0 4.172045737505D-05 9.094947017729D-13 1.080000000000D+04
   -1.075635058594D+04 3.397359848022D-01-4.656612873077D-09 0.000000000000D+00
    2.285832617188D+04-4.157228469849D-01 1.862645149231D-09 5.000000000000D+00
    3.773086914062D+03 3.519010543823D+00 0.000000000000D+00 0.000000000000D+00
14 21  8 24  3 15  0.0 6.798654794693D-05 0.000000000000D+00 1.080000000000D+04
   -2.467933593750D+03-1.831797599792D+00-9.313225746155D-10 0.000000000000D+00
    1.342871875000D+04-2.314631462097D+00-0.000000000000D+00-7.000000000000D+00
   -2.152280224609D+04-1.234736442566D+00 2.793967723846D-09 0.000000000000D+00
15 21  8 24  3 15  0.0 1.018987968564D-04-0.000000000000D+00 1.080000000000D+04
    1.089056542969D+04-7.401180267334D-01-9.313225746155D-10 0.000000000000D+00
    2.087409033203D+04-1.130066871643D+00-1.862645149231D-09 0.000000000000D+00
   -9.782354980469D+03-3.226688385010D+00 9.313225746155D-10 0.000000000000D+00
17 21  8 24  3 15  0.0 4.524365067482D-04 2.728484105319D-12 1.080000000000D+04
   -1.540293261719D+04-2.346928596497D+00-3.725290298462D-09 0.000000000000D+00
    1.036651367188D+04 5.052337646484D-01 2.793967723846D-09 4.000000000000D+00
    1.746990917969D+04-2.373668670654D+00-0.000000000000D+00 0.000000000000D+00
 4 21  8 24  3 45  0.0 1.014536246657D-04 1.818989403546D-12 1.260000000000D+04
   -2.441532226562D+03-6.885814666748D-02-3.725290298462D-09 0.000000000000D+00
    2.431620166016D+04 1.016510963440D+00 9.313225746155D-10 6.000000000000D+00
   -7.301701171875D+03 3.396128654480D+00 9.313225746155D-10 0.000000000000D+00
16 21  8 24  3 45  0.0-2.016592770815D-05 0.000000000000D+00 1.260000000000D+04
    1.977938769531D+04 3.688554763794D-01-9.313225746155D-10 0.000000000000D+00
    1.598216064453D+04 1.473388671875D-01-2.793967723846D-09-1.000000000000D+00
    2.718634765625D+03-3.519228935242D+00-0.000000000000D+00 0.000000000000D+00
 3 21  8 24  3 45  0.0 4.172232002020D-05 9.094947017729D-13 1.260000000000D+04
   -9.993705566406D+03 4.657907485962D-01-3.725290298462D-09 0.000000000000D+00
    2.133769482422D+04-1.270758628845D+00 2.793967723846D-09 5.000000000000D+00
    9.880574707031D+03 3.223257064819D+00 0.000000000000D+00 0.000000000000D+00
14 21  8 24  3 45  0.0 6.798747926950D-05 0.000000000000D+00 1.260000000000D+04
   -6.193941406250D+03-2.280213356018D+00-9.313225746155D-10 0.000000000000D+00
    9.367705566406D+03-2.155014991760D+00 0.000000000000D+00-7.000000000000D+00
   -2.288277148438D+04-2.665491104126D-01 2.793967723846D-09 0.000000000000D+00
15 21  8 24  3 45  0.0 1.018978655338D-04-0.000000000000D+00 1.260000000000D+04
    8.942138183594D+03-1.430593490601D+00-1.862645149231D-09 0.000000000000D+00
    1.845744482422D+04-1.511248588562D+00-9.313225746155D-10 0.000000000000D+00
   -1.513636914062D+04-2.683466911316D+00 1.862645149231D-09 0.000000000000D+00
17 21  8 24  3 45  0.0 4.524420946836D-04 2.728484105319D-12 1.260000000000D+04
   -1.898399414062D+04-1.604954719543D+00-3.725290298462D-09 0.000000000000D+00
    1.145027783203D+04 6.602182388306D-01 3.725290298462D-09 4.000000000000D+00
    1.257595361328D+04-3.028755187988D+00-0.000000000000D+00 0.000000000000D+00
 5 21  8 24  3 45  0.0 7.768999785185D-05 9.094947017729D-13 1.269000000000D+04
    6.411113769531D+03-5.882978439331D-01-9.313225746155D-10 0.000000000000D+00
    1.386138916016D+04 2.738463401794D+00-9.313225746155D-10 1.000000000000D+00
   -2.043059765625D+04 1.670412063599D+00 1.862645149231D-09 0.000000000000D+00
18 21  8 24  3 45  0.0 8.798856288195D-05 9.094947017729D-13 1.395000000000D+04
   -3.441104980469D+03-2.952473640442D+00-2.793967723846D-09 0.000000000000D+00
    1.148119384766D+04 9.019203186035D-01 1.862645149231D-09-3.000000000000D+00
    2.253219091797D+04-9.069509506226D-01-1.862645149231D-09 0.000000000000D+00
 4 21  8 24  4 15  0.0 1.014564186335D-04 1.818989403546D-12 1.440000000000D+04
   -2.317130371094D+03 1.686725616455D-01-3.725290298462D-09 0.000000000000D+00
    2.538759716797D+04 1.576042175293D-01 1.862645149231D-09 6.000000000000D+00
   -9.853261718750D+02 3.576469421387D+00 9.313225746155D-10 0.000000000000D+00
16 21  8 24  4 15  0.0-2.016499638557D-05 0.000000000000D+00 1.440000000000D+04
    1.983509960938D+04-3.308734893799D-01-1.862645149231D-09 0.000000000000D+00
    1.573320166016D+04-3.918190002441D-01-1.862645149231D-09-1.000000000000D+00
   -3.639062988281D+03-3.499367713928D+00 0.000000000000D+00 0.000000000000D+00
 3 21  8 24  4 15  0.0 4.172418266535D-05 9.094947017729D-13 1.440000000000D+04
   -9.226843261719D+03 3.477745056152D-01-3.725290298462D-09 0.000000000000D+00
    1.832949707031D+04-2.049625396729D+00 2.793967723846D-09 5.000000000000D+00
    1.522778369141D+04 2.679752349854D+00-0.000000000000D+00 0.000000000000D+00
 5 21  8 24  4 15  0.0 7.769186049700D-05 9.094947017729D-13 1.440000000000D+04
    5.783235351562D+03-1.257171630859D-01-1.862645149231D-09 0.000000000000D+00
    1.842353955078D+04 2.284699440002D+00 0.000000000000D+00 1.000000000000D+00
   -1.667304736328D+04 2.477489471436D+00 1.862645149231D-09 0.000000000000D+00
